STARLINK-36538          
1 67512U 26012V   26039.50002314 -.01927757  00000+0 -24968-1 0  9996
2 67512  42.9989 120.6857 0001237 273.5258 355.1352 15.61339679  4376
STARLINK-36531          
1 67513U 26012W   26039.50002314 -.01939602  00000+0 -24284-1 0  9990
2 67513  42.9987 120.6376 0001275 275.4124  13.0068 15.62224128  4328
STARLINK-36530          
1 67514U 26012X   26039.50002314 -.01920217  00000+0 -24936-1 0  9997
2 67514  42.9989 120.6634 0001416 267.1618  10.5008 15.61257487  4320
STARLINK-36543          
1 67515U 26012Y   26039.50002314 -.01925387  00000+0 -25999-1 0  9991
2 67515  42.9991 120.6949 0001275 272.2968 352.4061 15.60265571  4320
STARLINK-36537          
1 67516U 26012Z   26039.50002314 -.01941489  00000+0 -24225-1 0  9994
2 67516  42.9988 120.5724 0001231 277.4221  36.5060 15.62314168  4326
STARLINK-36544          
1 67517U 26012AA  26039.50002314 -.01941983  00000+0 -23377-1 0  9991
2 67517  42.9989 120.5529 0001296 278.2566  43.7446 15.63220684  4376
STARLINK-36412          
1 67518U 26012AB  26039.50002314 -.01938632  00000+0 -24067-1 0  9996
2 67518  42.9988 120.5249 0001217 275.5838  57.3380 15.62437553  4327
STARLINK-36415          
1 67519U 26012AC  26039.50002314 -.01940027  00000+0 -23896-1 0  9997
2 67519  42.9990 120.4993 0001245 275.4060  67.2839 15.62637835  4530
STARLINK-36547          
1 67520U 26012AD  26039.50002314 -.01950037  00000+0 -24394-1 0  9995
2 67520  42.9990 120.5433 0001267 278.3638  46.8810 15.62263567  4325
STARLINK-36444          
1 67521U 26012AE  26039.50002314 -.01924881  00000+0 -25677-1 0  9999
2 67521  42.9990 120.6311 0001314 278.3427  11.6355 15.60578589  4326
HULIANWANG DIGUI-146    
1 67522U 26013A   26039.37995195 -.00000012  00000+0  11937-3 0  9999
2 67522  50.0092 104.8990 0000778 310.0706  50.0122 13.83035888  2807
HULIANWANG DIGUI-147    
1 67523U 26013B   26039.37839769 -.00000018  00000+0  11370-3 0  9991
2 67523  50.0070 104.8767 0000803 347.2964  12.7911 13.83183237  2806
