CCSDS_OMM_VERS = 2.0
CREATION_DATE  = 
ORIGINATOR     = 

OBJECT_NAME    = STARLINK-36538
OBJECT_ID      = 2026-012V
CENTER_NAME    = EARTH
REF_FRAME      = TEME
TIME_SYSTEM    = UTC
MEAN_ELEMENT_THEORY = SGP/SGP4

EPOCH          = 2026-02-08T12:00:01.999296
MEAN_MOTION    = 15.61339679
ECCENTRICITY   = .0001237
INCLINATION    = 42.9989
RA_OF_ASC_NODE = 120.6857
ARG_OF_PERICENTER = 273.5258
MEAN_ANOMALY   = 355.1352

EPHEMERIS_TYPE = 0
CLASSIFICATION_TYPE = U
NORAD_CAT_ID   = 67512
ELEMENT_SET_NO = 999
REV_AT_EPOCH   = 437
BSTAR          = -.24968E-1
MEAN_MOTION_DOT = -.1927757E-1
MEAN_MOTION_DDOT = 0

CCSDS_OMM_VERS = 2.0
CREATION_DATE  = 
ORIGINATOR     = 

OBJECT_NAME    = STARLINK-36531
OBJECT_ID      = 2026-012W
CENTER_NAME    = EARTH
REF_FRAME      = TEME
TIME_SYSTEM    = UTC
MEAN_ELEMENT_THEORY = SGP/SGP4

EPOCH          = 2026-02-08T12:00:01.999296
MEAN_MOTION    = 15.62224128
ECCENTRICITY   = .0001275
INCLINATION    = 42.9987
RA_OF_ASC_NODE = 120.6376
ARG_OF_PERICENTER = 275.4124
MEAN_ANOMALY   = 13.0068

EPHEMERIS_TYPE = 0
CLASSIFICATION_TYPE = U
NORAD_CAT_ID   = 67513
ELEMENT_SET_NO = 999
REV_AT_EPOCH   = 432
BSTAR          = -.24284E-1
MEAN_MOTION_DOT = -.1939602E-1
MEAN_MOTION_DDOT = 0

CCSDS_OMM_VERS = 2.0
CREATION_DATE  = 
ORIGINATOR     = 

OBJECT_NAME    = STARLINK-36530
OBJECT_ID      = 2026-012X
CENTER_NAME    = EARTH
REF_FRAME      = TEME
TIME_SYSTEM    = UTC
MEAN_ELEMENT_THEORY = SGP/SGP4

EPOCH          = 2026-02-08T12:00:01.999296
MEAN_MOTION    = 15.61257487
ECCENTRICITY   = .0001416
INCLINATION    = 42.9989
RA_OF_ASC_NODE = 120.6634
ARG_OF_PERICENTER = 267.1618
MEAN_ANOMALY   = 10.5008

EPHEMERIS_TYPE = 0
CLASSIFICATION_TYPE = U
NORAD_CAT_ID   = 67514
ELEMENT_SET_NO = 999
REV_AT_EPOCH   = 432
BSTAR          = -.24936E-1
MEAN_MOTION_DOT = -.1920217E-1
MEAN_MOTION_DDOT = 0

CCSDS_OMM_VERS = 2.0
CREATION_DATE  = 
ORIGINATOR     = 

OBJECT_NAME    = STARLINK-36543
OBJECT_ID      = 2026-012Y
CENTER_NAME    = EARTH
REF_FRAME      = TEME
TIME_SYSTEM    = UTC
MEAN_ELEMENT_THEORY = SGP/SGP4

EPOCH          = 2026-02-08T12:00:01.999296
MEAN_MOTION    = 15.60265571
ECCENTRICITY   = .0001275
INCLINATION    = 42.9991
RA_OF_ASC_NODE = 120.6949
ARG_OF_PERICENTER = 272.2968
MEAN_ANOMALY   = 352.4061

EPHEMERIS_TYPE = 0
CLASSIFICATION_TYPE = U
NORAD_CAT_ID   = 67515
ELEMENT_SET_NO = 999
REV_AT_EPOCH   = 432
BSTAR          = -.25999E-1
MEAN_MOTION_DOT = -.1925387E-1
MEAN_MOTION_DDOT = 0

CCSDS_OMM_VERS = 2.0
CREATION_DATE  = 
ORIGINATOR     = 

OBJECT_NAME    = STARLINK-36537
OBJECT_ID      = 2026-012Z
CENTER_NAME    = EARTH
REF_FRAME      = TEME
TIME_SYSTEM    = UTC
MEAN_ELEMENT_THEORY = SGP/SGP4

EPOCH          = 2026-02-08T12:00:01.999296
MEAN_MOTION    = 15.62314168
ECCENTRICITY   = .0001231
INCLINATION    = 42.9988
RA_OF_ASC_NODE = 120.5724
ARG_OF_PERICENTER = 277.4221
MEAN_ANOMALY   = 36.5060

EPHEMERIS_TYPE = 0
CLASSIFICATION_TYPE = U
NORAD_CAT_ID   = 67516
ELEMENT_SET_NO = 999
REV_AT_EPOCH   = 432
BSTAR          = -.24225E-1
MEAN_MOTION_DOT = -.1941489E-1
MEAN_MOTION_DDOT = 0

CCSDS_OMM_VERS = 2.0
CREATION_DATE  = 
ORIGINATOR     = 

OBJECT_NAME    = STARLINK-36544
OBJECT_ID      = 2026-012AA
CENTER_NAME    = EARTH
REF_FRAME      = TEME
TIME_SYSTEM    = UTC
MEAN_ELEMENT_THEORY = SGP/SGP4

EPOCH          = 2026-02-08T12:00:01.999296
MEAN_MOTION    = 15.63220684
ECCENTRICITY   = .0001296
INCLINATION    = 42.9989
RA_OF_ASC_NODE = 120.5529
ARG_OF_PERICENTER = 278.2566
MEAN_ANOMALY   = 43.7446

EPHEMERIS_TYPE = 0
CLASSIFICATION_TYPE = U
NORAD_CAT_ID   = 67517
ELEMENT_SET_NO = 999
REV_AT_EPOCH   = 437
BSTAR          = -.23377E-1
MEAN_MOTION_DOT = -.1941983E-1
MEAN_MOTION_DDOT = 0

CCSDS_OMM_VERS = 2.0
CREATION_DATE  = 
ORIGINATOR     = 

OBJECT_NAME    = STARLINK-36412
OBJECT_ID      = 2026-012AB
CENTER_NAME    = EARTH
REF_FRAME      = TEME
TIME_SYSTEM    = UTC
MEAN_ELEMENT_THEORY = SGP/SGP4

EPOCH          = 2026-02-08T12:00:01.999296
MEAN_MOTION    = 15.62437553
ECCENTRICITY   = .0001217
INCLINATION    = 42.9988
RA_OF_ASC_NODE = 120.5249
ARG_OF_PERICENTER = 275.5838
MEAN_ANOMALY   = 57.3380

EPHEMERIS_TYPE = 0
CLASSIFICATION_TYPE = U
NORAD_CAT_ID   = 67518
ELEMENT_SET_NO = 999
REV_AT_EPOCH   = 432
BSTAR          = -.24067E-1
MEAN_MOTION_DOT = -.1938632E-1
MEAN_MOTION_DDOT = 0

CCSDS_OMM_VERS = 2.0
CREATION_DATE  = 
ORIGINATOR     = 

OBJECT_NAME    = STARLINK-36415
OBJECT_ID      = 2026-012AC
CENTER_NAME    = EARTH
REF_FRAME      = TEME
TIME_SYSTEM    = UTC
MEAN_ELEMENT_THEORY = SGP/SGP4

EPOCH          = 2026-02-08T12:00:01.999296
MEAN_MOTION    = 15.62637835
ECCENTRICITY   = .0001245
INCLINATION    = 42.9990
RA_OF_ASC_NODE = 120.4993
ARG_OF_PERICENTER = 275.4060
MEAN_ANOMALY   = 67.2839

EPHEMERIS_TYPE = 0
CLASSIFICATION_TYPE = U
NORAD_CAT_ID   = 67519
ELEMENT_SET_NO = 999
REV_AT_EPOCH   = 453
BSTAR          = -.23896E-1
MEAN_MOTION_DOT = -.1940027E-1
MEAN_MOTION_DDOT = 0

CCSDS_OMM_VERS = 2.0
CREATION_DATE  = 
ORIGINATOR     = 

OBJECT_NAME    = STARLINK-36547
OBJECT_ID      = 2026-012AD
CENTER_NAME    = EARTH
REF_FRAME      = TEME
TIME_SYSTEM    = UTC
MEAN_ELEMENT_THEORY = SGP/SGP4

EPOCH          = 2026-02-08T12:00:01.999296
MEAN_MOTION    = 15.62263567
ECCENTRICITY   = .0001267
INCLINATION    = 42.9990
RA_OF_ASC_NODE = 120.5433
ARG_OF_PERICENTER = 278.3638
MEAN_ANOMALY   = 46.8810

EPHEMERIS_TYPE = 0
CLASSIFICATION_TYPE = U
NORAD_CAT_ID   = 67520
ELEMENT_SET_NO = 999
REV_AT_EPOCH   = 432
BSTAR          = -.24394E-1
MEAN_MOTION_DOT = -.1950037E-1
MEAN_MOTION_DDOT = 0

CCSDS_OMM_VERS = 2.0
CREATION_DATE  = 
ORIGINATOR     = 

OBJECT_NAME    = STARLINK-36444
OBJECT_ID      = 2026-012AE
CENTER_NAME    = EARTH
REF_FRAME      = TEME
TIME_SYSTEM    = UTC
MEAN_ELEMENT_THEORY = SGP/SGP4

EPOCH          = 2026-02-08T12:00:01.999296
MEAN_MOTION    = 15.60578589
ECCENTRICITY   = .0001314
INCLINATION    = 42.9990
RA_OF_ASC_NODE = 120.6311
ARG_OF_PERICENTER = 278.3427
MEAN_ANOMALY   = 11.6355

EPHEMERIS_TYPE = 0
CLASSIFICATION_TYPE = U
NORAD_CAT_ID   = 67521
ELEMENT_SET_NO = 999
REV_AT_EPOCH   = 432
BSTAR          = -.25677E-1
MEAN_MOTION_DOT = -.1924881E-1
MEAN_MOTION_DDOT = 0

CCSDS_OMM_VERS = 2.0
CREATION_DATE  = 
ORIGINATOR     = 

OBJECT_NAME    = HULIANWANG DIGUI-146
OBJECT_ID      = 2026-013A
CENTER_NAME    = EARTH
REF_FRAME      = TEME
TIME_SYSTEM    = UTC
MEAN_ELEMENT_THEORY = SGP/SGP4

EPOCH          = 2026-02-08T09:07:07.848480
MEAN_MOTION    = 13.83035888
ECCENTRICITY   = .0000778
INCLINATION    = 50.0092
RA_OF_ASC_NODE = 104.8990
ARG_OF_PERICENTER = 310.0706
MEAN_ANOMALY   = 50.0122

EPHEMERIS_TYPE = 0
CLASSIFICATION_TYPE = U
NORAD_CAT_ID   = 67522
ELEMENT_SET_NO = 999
REV_AT_EPOCH   = 280
BSTAR          = .11937E-3
MEAN_MOTION_DOT = -.12E-6
MEAN_MOTION_DDOT = 0

CCSDS_OMM_VERS = 2.0
CREATION_DATE  = 
ORIGINATOR     = 

OBJECT_NAME    = HULIANWANG DIGUI-147
OBJECT_ID      = 2026-013B
CENTER_NAME    = EARTH
REF_FRAME      = TEME
TIME_SYSTEM    = UTC
MEAN_ELEMENT_THEORY = SGP/SGP4

EPOCH          = 2026-02-08T09:04:53.560416
MEAN_MOTION    = 13.83183237
ECCENTRICITY   = .0000803
INCLINATION    = 50.0070
RA_OF_ASC_NODE = 104.8767
ARG_OF_PERICENTER = 347.2964
MEAN_ANOMALY   = 12.7911

EPHEMERIS_TYPE = 0
CLASSIFICATION_TYPE = U
NORAD_CAT_ID   = 67523
ELEMENT_SET_NO = 999
REV_AT_EPOCH   = 280
BSTAR          = .1137E-3
MEAN_MOTION_DOT = -.18E-6
MEAN_MOTION_DDOT = 0

